STARLINK-36447          
1 67425U 26005X   26034.16668981  .00056143  00000+0  95778-3 0  9994
2 67425  42.9998  76.0931 0001096 265.5253 337.1736 15.50525392  4637
STARLINK-36146          
1 67426U 26005Y   26034.16668981  .00056582  00000+0  96514-3 0  9991
2 67426  42.9998  76.0885 0001413 262.4338 342.1803 15.50526524  4582
STARLINK-36459          
1 67427U 26005Z   26034.16668981  .00057119  00000+0  97420-3 0  9996
2 67427  42.9998  76.0829 0001469 264.0144 342.5166 15.50525850  4559
STARLINK-36464          
1 67428U 26005AA  26034.16668981  .00058870  00000+0  10037-2 0  9990
2 67428  42.9999  76.0737 0001386 261.3218 349.0427 15.50525386  4634
STARLINK-36513          
1 67429U 26005AB  26034.16668981 -.00098313  00000+0 -16880-2 0  9991
2 67429  42.9999  76.0685 0000647 270.7409 341.4762 15.50631330  4637
STARLINK-36515          
1 67430U 26005AC  26034.16668981  .00056376  00000+0  96169-3 0  9993
2 67430  42.9998  76.0783 0001403 260.6638 347.7861 15.50525891  4554
STARLINK-36443          
1 67431U 26005AD  26034.16668981  .00056785  00000+0  96858-3 0  9993
2 67431  42.9998  76.0630 0000804 261.7846 352.4158 15.50526049  4584
STARLINK-36460          
1 67432U 26005AE  26034.16668981  .00057266  00000+0  97664-3 0  9995
2 67432  42.9999  76.0585 0001057 258.2731 357.8430 15.50526888  4639
YAOGAN-50 01            
1 67433U 26006A   26034.11464994  .00000336  00000+0  13385-3 0  9994
2 67433 142.0318 287.8643 0000670 263.8974  96.1668 13.83253539  2868
CZ-6A R/B               
1 67434U 26006B   26033.58938814  .00001493  00000+0  16957-3 0  9995
2 67434 142.0436 297.5747 0203369 228.4803 129.8314 14.62293638  2933
HULIANWANG DIGUI-137    
1 67435U 26007A   26032.02760062  .00000017  00000+0  14680-3 0  9995
2 67435  50.0080 221.3687 0000526 259.3583 100.7253 13.82639757  2569
HULIANWANG DIGUI-138    
1 67436U 26007B   26032.61013165 -.00000001  00000+0  13266-3 0  9999
2 67436  50.0069 219.1163 0000763 166.5393 193.5523 13.81629411  2646
