CCSDS_OMM_VERS = 2.0
CREATION_DATE  = 
ORIGINATOR     = 

OBJECT_NAME    = STARLINK-36447
OBJECT_ID      = 2026-005X
CENTER_NAME    = EARTH
REF_FRAME      = TEME
TIME_SYSTEM    = UTC
MEAN_ELEMENT_THEORY = SGP/SGP4

EPOCH          = 2026-02-03T04:00:01.999584
MEAN_MOTION    = 15.50525392
ECCENTRICITY   = .0001096
INCLINATION    = 42.9998
RA_OF_ASC_NODE = 76.0931
ARG_OF_PERICENTER = 265.5253
MEAN_ANOMALY   = 337.1736

EPHEMERIS_TYPE = 0
CLASSIFICATION_TYPE = U
NORAD_CAT_ID   = 67425
ELEMENT_SET_NO = 999
REV_AT_EPOCH   = 463
BSTAR          = .95778E-3
MEAN_MOTION_DOT = .56143E-3
MEAN_MOTION_DDOT = 0

CCSDS_OMM_VERS = 2.0
CREATION_DATE  = 
ORIGINATOR     = 

OBJECT_NAME    = STARLINK-36146
OBJECT_ID      = 2026-005Y
CENTER_NAME    = EARTH
REF_FRAME      = TEME
TIME_SYSTEM    = UTC
MEAN_ELEMENT_THEORY = SGP/SGP4

EPOCH          = 2026-02-03T04:00:01.999584
MEAN_MOTION    = 15.50526524
ECCENTRICITY   = .0001413
INCLINATION    = 42.9998
RA_OF_ASC_NODE = 76.0885
ARG_OF_PERICENTER = 262.4338
MEAN_ANOMALY   = 342.1803

EPHEMERIS_TYPE = 0
CLASSIFICATION_TYPE = U
NORAD_CAT_ID   = 67426
ELEMENT_SET_NO = 999
REV_AT_EPOCH   = 458
BSTAR          = .96514E-3
MEAN_MOTION_DOT = .56582E-3
MEAN_MOTION_DDOT = 0

CCSDS_OMM_VERS = 2.0
CREATION_DATE  = 
ORIGINATOR     = 

OBJECT_NAME    = STARLINK-36459
OBJECT_ID      = 2026-005Z
CENTER_NAME    = EARTH
REF_FRAME      = TEME
TIME_SYSTEM    = UTC
MEAN_ELEMENT_THEORY = SGP/SGP4

EPOCH          = 2026-02-03T04:00:01.999584
MEAN_MOTION    = 15.50525850
ECCENTRICITY   = .0001469
INCLINATION    = 42.9998
RA_OF_ASC_NODE = 76.0829
ARG_OF_PERICENTER = 264.0144
MEAN_ANOMALY   = 342.5166

EPHEMERIS_TYPE = 0
CLASSIFICATION_TYPE = U
NORAD_CAT_ID   = 67427
ELEMENT_SET_NO = 999
REV_AT_EPOCH   = 455
BSTAR          = .9742E-3
MEAN_MOTION_DOT = .57119E-3
MEAN_MOTION_DDOT = 0

CCSDS_OMM_VERS = 2.0
CREATION_DATE  = 
ORIGINATOR     = 

OBJECT_NAME    = STARLINK-36464
OBJECT_ID      = 2026-005AA
CENTER_NAME    = EARTH
REF_FRAME      = TEME
TIME_SYSTEM    = UTC
MEAN_ELEMENT_THEORY = SGP/SGP4

EPOCH          = 2026-02-03T04:00:01.999584
MEAN_MOTION    = 15.50525386
ECCENTRICITY   = .0001386
INCLINATION    = 42.9999
RA_OF_ASC_NODE = 76.0737
ARG_OF_PERICENTER = 261.3218
MEAN_ANOMALY   = 349.0427

EPHEMERIS_TYPE = 0
CLASSIFICATION_TYPE = U
NORAD_CAT_ID   = 67428
ELEMENT_SET_NO = 999
REV_AT_EPOCH   = 463
BSTAR          = .10037E-2
MEAN_MOTION_DOT = .5887E-3
MEAN_MOTION_DDOT = 0

CCSDS_OMM_VERS = 2.0
CREATION_DATE  = 
ORIGINATOR     = 

OBJECT_NAME    = STARLINK-36513
OBJECT_ID      = 2026-005AB
CENTER_NAME    = EARTH
REF_FRAME      = TEME
TIME_SYSTEM    = UTC
MEAN_ELEMENT_THEORY = SGP/SGP4

EPOCH          = 2026-02-03T04:00:01.999584
MEAN_MOTION    = 15.50631330
ECCENTRICITY   = .0000647
INCLINATION    = 42.9999
RA_OF_ASC_NODE = 76.0685
ARG_OF_PERICENTER = 270.7409
MEAN_ANOMALY   = 341.4762

EPHEMERIS_TYPE = 0
CLASSIFICATION_TYPE = U
NORAD_CAT_ID   = 67429
ELEMENT_SET_NO = 999
REV_AT_EPOCH   = 463
BSTAR          = -.1688E-2
MEAN_MOTION_DOT = -.98313E-3
MEAN_MOTION_DDOT = 0

CCSDS_OMM_VERS = 2.0
CREATION_DATE  = 
ORIGINATOR     = 

OBJECT_NAME    = STARLINK-36515
OBJECT_ID      = 2026-005AC
CENTER_NAME    = EARTH
REF_FRAME      = TEME
TIME_SYSTEM    = UTC
MEAN_ELEMENT_THEORY = SGP/SGP4

EPOCH          = 2026-02-03T04:00:01.999584
MEAN_MOTION    = 15.50525891
ECCENTRICITY   = .0001403
INCLINATION    = 42.9998
RA_OF_ASC_NODE = 76.0783
ARG_OF_PERICENTER = 260.6638
MEAN_ANOMALY   = 347.7861

EPHEMERIS_TYPE = 0
CLASSIFICATION_TYPE = U
NORAD_CAT_ID   = 67430
ELEMENT_SET_NO = 999
REV_AT_EPOCH   = 455
BSTAR          = .96169E-3
MEAN_MOTION_DOT = .56376E-3
MEAN_MOTION_DDOT = 0

CCSDS_OMM_VERS = 2.0
CREATION_DATE  = 
ORIGINATOR     = 

OBJECT_NAME    = STARLINK-36443
OBJECT_ID      = 2026-005AD
CENTER_NAME    = EARTH
REF_FRAME      = TEME
TIME_SYSTEM    = UTC
MEAN_ELEMENT_THEORY = SGP/SGP4

EPOCH          = 2026-02-03T04:00:01.999584
MEAN_MOTION    = 15.50526049
ECCENTRICITY   = .0000804
INCLINATION    = 42.9998
RA_OF_ASC_NODE = 76.0630
ARG_OF_PERICENTER = 261.7846
MEAN_ANOMALY   = 352.4158

EPHEMERIS_TYPE = 0
CLASSIFICATION_TYPE = U
NORAD_CAT_ID   = 67431
ELEMENT_SET_NO = 999
REV_AT_EPOCH   = 458
BSTAR          = .96858E-3
MEAN_MOTION_DOT = .56785E-3
MEAN_MOTION_DDOT = 0

CCSDS_OMM_VERS = 2.0
CREATION_DATE  = 
ORIGINATOR     = 

OBJECT_NAME    = STARLINK-36460
OBJECT_ID      = 2026-005AE
CENTER_NAME    = EARTH
REF_FRAME      = TEME
TIME_SYSTEM    = UTC
MEAN_ELEMENT_THEORY = SGP/SGP4

EPOCH          = 2026-02-03T04:00:01.999584
MEAN_MOTION    = 15.50526888
ECCENTRICITY   = .0001057
INCLINATION    = 42.9999
RA_OF_ASC_NODE = 76.0585
ARG_OF_PERICENTER = 258.2731
MEAN_ANOMALY   = 357.8430

EPHEMERIS_TYPE = 0
CLASSIFICATION_TYPE = U
NORAD_CAT_ID   = 67432
ELEMENT_SET_NO = 999
REV_AT_EPOCH   = 463
BSTAR          = .97664E-3
MEAN_MOTION_DOT = .57266E-3
MEAN_MOTION_DDOT = 0

CCSDS_OMM_VERS = 2.0
CREATION_DATE  = 
ORIGINATOR     = 

OBJECT_NAME    = YAOGAN-50 01
OBJECT_ID      = 2026-006A
CENTER_NAME    = EARTH
REF_FRAME      = TEME
TIME_SYSTEM    = UTC
MEAN_ELEMENT_THEORY = SGP/SGP4

EPOCH          = 2026-02-03T02:45:05.754816
MEAN_MOTION    = 13.83253539
ECCENTRICITY   = .000067
INCLINATION    = 142.0318
RA_OF_ASC_NODE = 287.8643
ARG_OF_PERICENTER = 263.8974
MEAN_ANOMALY   = 96.1668

EPHEMERIS_TYPE = 0
CLASSIFICATION_TYPE = U
NORAD_CAT_ID   = 67433
ELEMENT_SET_NO = 999
REV_AT_EPOCH   = 286
BSTAR          = .13385E-3
MEAN_MOTION_DOT = .336E-5
MEAN_MOTION_DDOT = 0

CCSDS_OMM_VERS = 2.0
CREATION_DATE  = 
ORIGINATOR     = 

OBJECT_NAME    = CZ-6A R/B
OBJECT_ID      = 2026-006B
CENTER_NAME    = EARTH
REF_FRAME      = TEME
TIME_SYSTEM    = UTC
MEAN_ELEMENT_THEORY = SGP/SGP4

EPOCH          = 2026-02-02T14:08:43.135296
MEAN_MOTION    = 14.62293638
ECCENTRICITY   = .02033698
INCLINATION    = 142.0436
RA_OF_ASC_NODE = 297.5747
ARG_OF_PERICENTER = 228.4803
MEAN_ANOMALY   = 129.8314

EPHEMERIS_TYPE = 0
CLASSIFICATION_TYPE = U
NORAD_CAT_ID   = 67434
ELEMENT_SET_NO = 999
REV_AT_EPOCH   = 293
BSTAR          = .16957434E-3
MEAN_MOTION_DOT = .1493E-4
MEAN_MOTION_DDOT = 0

CCSDS_OMM_VERS = 2.0
CREATION_DATE  = 
ORIGINATOR     = 

OBJECT_NAME    = HULIANWANG DIGUI-137
OBJECT_ID      = 2026-007A
CENTER_NAME    = EARTH
REF_FRAME      = TEME
TIME_SYSTEM    = UTC
MEAN_ELEMENT_THEORY = SGP/SGP4

EPOCH          = 2026-02-01T00:39:44.693568
MEAN_MOTION    = 13.82639757
ECCENTRICITY   = .0000526
INCLINATION    = 50.0080
RA_OF_ASC_NODE = 221.3687
ARG_OF_PERICENTER = 259.3583
MEAN_ANOMALY   = 100.7253

EPHEMERIS_TYPE = 0
CLASSIFICATION_TYPE = U
NORAD_CAT_ID   = 67435
ELEMENT_SET_NO = 999
REV_AT_EPOCH   = 256
BSTAR          = .14679693E-3
MEAN_MOTION_DOT = .17E-6
MEAN_MOTION_DDOT = 0

CCSDS_OMM_VERS = 2.0
CREATION_DATE  = 
ORIGINATOR     = 

OBJECT_NAME    = HULIANWANG DIGUI-138
OBJECT_ID      = 2026-007B
CENTER_NAME    = EARTH
REF_FRAME      = TEME
TIME_SYSTEM    = UTC
MEAN_ELEMENT_THEORY = SGP/SGP4

EPOCH          = 2026-02-01T14:38:35.374560
MEAN_MOTION    = 13.81629411
ECCENTRICITY   = .00007637
INCLINATION    = 50.0069
RA_OF_ASC_NODE = 219.1163
ARG_OF_PERICENTER = 166.5393
MEAN_ANOMALY   = 193.5523

EPHEMERIS_TYPE = 0
CLASSIFICATION_TYPE = U
NORAD_CAT_ID   = 67436
ELEMENT_SET_NO = 999
REV_AT_EPOCH   = 264
BSTAR          = .1326619E-3
MEAN_MOTION_DOT = -.1E-7
MEAN_MOTION_DDOT = 0

